[
    {
        "Altitude(m)": 622205.856098795,
        "Argument of Periapsis(deg)": 0.0,
        "Eccentricity": 0.0,
        "Inclination(deg)": 60.0,
        "Latitude(deg)": -52.16240397345317,
        "Longitude(deg)": 22.700540541258455,
        "Mean Anomaly(deg)": -114.54549999999998,
        "RAAN(deg)": 255.0,
        "Satellite Name": "Test1 1137",
        "Satellite Number": 1137,
        "Semi-Major Axis(m)": 6980739.136638005,
        "Time(s)": 0
    },
    {
        "Altitude(m)": 622344.7621168401,
        "Argument of Periapsis(deg)": 0.00010418945913296404,
        "Eccentricity": 0.0,
        "Inclination(deg)": 60.0,
        "Latitude(deg)": -52.51998201897473,
        "Longitude(deg)": 23.48175423379752,
        "Mean Anomaly(deg)": -113.9253938545381,
        "RAAN(deg)": 254.99957995086027,
        "Satellite Name": "Test1 1137",
        "Satellite Number": 1137,
        "Semi-Major Axis(m)": 6980739.136638005,
        "Time(s)": 10
    },
    {
        "Altitude(m)": 622480.8244804151,
        "Argument of Periapsis(deg)": 0.0002083789182659281,
        "Eccentricity": 0.0,
        "Inclination(deg)": 60.0,
        "Latitude(deg)": -52.871723434111956,
        "Longitude(deg)": 24.276300021765504,
        "Mean Anomaly(deg)": -113.30528770907637,
        "RAAN(deg)": 254.9991599017205,
        "Satellite Name": "Test1 1137",
        "Satellite Number": 1137,
        "Semi-Major Axis(m)": 6980739.136638005,
        "Time(s)": 20
    },
    {
        "Altitude(m)": 622613.9899584018,
        "Argument of Periapsis(deg)": 0.00031256837739889213,
        "Eccentricity": 0.0,
        "Inclination(deg)": 60.0,
        "Latitude(deg)": -53.217460357986546,
        "Longitude(deg)": 25.084338868974143,
        "Mean Anomaly(deg)": -112.68518156361445,
        "RAAN(deg)": 254.9987398525808,
        "Satellite Name": "Test1 1137",
        "Satellite Number": 1137,
        "Semi-Major Axis(m)": 6980739.136638005,
        "Time(s)": 30
    },
    {
        "Altitude(m)": 622744.2064299152,
        "Argument of Periapsis(deg)": 0.0004167578365318562,
        "Eccentricity": 0.0,
        "Inclination(deg)": 60.0,
        "Latitude(deg)": -53.557021522884696,
        "Longitude(deg)": 25.906020115810833,
        "Mean Anomaly(deg)": -112.06507541815272,
        "RAAN(deg)": 254.99831980344106,
        "Satellite Name": "Test1 1137",
        "Satellite Number": 1137,
        "Semi-Major Axis(m)": 6980739.136638005,
        "Time(s)": 40
    },
    {
        "Altitude(m)": 622871.4229065445,
        "Argument of Periapsis(deg)": 0.0005209472956648203,
        "Eccentricity": 0.0,
        "Inclination(deg)": 60.0,
        "Latitude(deg)": -53.890232377023636,
        "Longitude(deg)": 26.741479082743233,
        "Mean Anomaly(deg)": -111.44496927269084,
        "RAAN(deg)": 254.9978997543013,
        "Satellite Name": "Test1 1137",
        "Satellite Number": 1137,
        "Semi-Major Axis(m)": 6980739.136638005,
        "Time(s)": 50
    },
    {
        "Altitude(m)": 622995.5895541013,
        "Argument of Periapsis(deg)": 0.0006251367547977843,
        "Eccentricity": 0.0,
        "Inclination(deg)": 60.0,
        "Latitude(deg)": -54.21691523130022,
        "Longitude(deg)": 27.590836123090302,
        "Mean Anomaly(deg)": -110.8248631272291,
        "RAAN(deg)": 254.99747970516154,
        "Satellite Name": "Test1 1137",
        "Satellite Number": 1137,
        "Semi-Major Axis(m)": 6980739.136638005,
        "Time(s)": 60
    },
    {
        "Altitude(m)": 623116.6577138522,
        "Argument of Periapsis(deg)": 0.0007293262139307483,
        "Eccentricity": 0.0,
        "Inclination(deg)": 60.0,
        "Latitude(deg)": -54.536889431641775,
        "Longitude(deg)": 28.454195616553005,
        "Mean Anomaly(deg)": -110.20475698176719,
        "RAAN(deg)": 254.99705965602183,
        "Satellite Name": "Test1 1137",
        "Satellite Number": 1137,
        "Semi-Major Axis(m)": 6980739.136638005,
        "Time(s)": 70
    },
    {
        "Altitude(m)": 623234.5799232385,
        "Argument of Periapsis(deg)": 0.0008335156730637124,
        "Eccentricity": 0.0,
        "Inclination(deg)": 60.0,
        "Latitude(deg)": -54.849971558533106,
        "Longitude(deg)": 29.33164339627513,
        "Mean Anomaly(deg)": -109.58465083630546,
        "RAAN(deg)": 254.9966396068821,
        "Satellite Name": "Test1 1137",
        "Satellite Number": 1137,
        "Semi-Major Axis(m)": 6980739.136638005,
        "Time(s)": 80
    },
    {
        "Altitude(m)": 623349.3099360866,
        "Argument of Periapsis(deg)": 0.0009377051321966765,
        "Eccentricity": 0.0,
        "Inclination(deg)": 60.0,
        "Latitude(deg)": -55.155975655222605,
        "Longitude(deg)": 30.223245642232765,
        "Mean Anomaly(deg)": -108.96454469084358,
        "RAAN(deg)": 254.99621955774234,
        "Satellite Name": "Test1 1137",
        "Satellite Number": 1137,
        "Semi-Major Axis(m)": 6980739.136638005,
        "Time(s)": 90
    },
    {
        "Altitude(m)": 623460.8027422534,
        "Argument of Periapsis(deg)": 0.0010418945913296407,
        "Eccentricity": 0.0,
        "Inclination(deg)": 60.0,
        "Latitude(deg)": -55.45471348601384,
        "Longitude(deg)": 31.129047736630753,
        "Mean Anomaly(deg)": -108.34443854538173,
        "RAAN(deg)": 254.99579950860257,
        "Satellite Name": "Test1 1137",
        "Satellite Number": 1137,
        "Semi-Major Axis(m)": 6980739.136638005,
        "Time(s)": 100
    },
    {
        "Altitude(m)": 623569.0145867915,
        "Argument of Periapsis(deg)": 0.0011460840504626045,
        "Eccentricity": 0.0,
        "Inclination(deg)": 60.0,
        "Latitude(deg)": -55.74599482592181,
        "Longitude(deg)": 32.049071578595104,
        "Mean Anomaly(deg)": -107.72433239991993,
        "RAAN(deg)": 254.99537945946287,
        "Satellite Name": "Test1 1137",
        "Satellite Number": 1137,
        "Semi-Major Axis(m)": 6980739.136638005,
        "Time(s)": 110
    },
    {
        "Altitude(m)": 623673.9029884954,
        "Argument of Periapsis(deg)": 0.0012502735095955685,
        "Eccentricity": 0.0,
        "Inclination(deg)": 60.0,
        "Latitude(deg)": -56.02962778279183,
        "Longitude(deg)": 32.98331439573272,
        "Mean Anomaly(deg)": -107.10422625445808,
        "RAAN(deg)": 254.99495941032313,
        "Satellite Name": "Test1 1137",
        "Satellite Number": 1137,
        "Semi-Major Axis(m)": 6980739.136638005,
        "Time(s)": 120
    },
    {
        "Altitude(m)": 623775.426757969,
        "Argument of Periapsis(deg)": 0.0013544629687285324,
        "Eccentricity": 0.0,
        "Inclination(deg)": 60.0,
        "Latitude(deg)": -56.30541915277944,
        "Longitude(deg)": 33.931747553243966,
        "Mean Anomaly(deg)": -106.48412010899622,
        "RAAN(deg)": 254.99453936118337,
        "Satellite Name": "Test1 1137",
        "Satellite Number": 1137,
        "Semi-Major Axis(m)": 6980739.136638005,
        "Time(s)": 130
    },
    {
        "Altitude(m)": 623873.5460150802,
        "Argument of Periapsis(deg)": 0.0014586524278614966,
        "Eccentricity": 0.0,
        "Inclination(deg)": 60.0,
        "Latitude(deg)": -56.57317480983929,
        "Longitude(deg)": 34.89431386301952,
        "Mean Anomaly(deg)": -105.86401396353438,
        "RAAN(deg)": 254.9941193120436,
        "Satellite Name": "Test1 1137",
        "Satellite Number": 1137,
        "Semi-Major Axis(m)": 6980739.136638005,
        "Time(s)": 140
    },
    {
        "Altitude(m)": 623968.2222058844,
        "Argument of Periapsis(deg)": 0.0015628418869944607,
        "Eccentricity": 0.0,
        "Inclination(deg)": 60.0,
        "Latitude(deg)": -56.83270012956783,
        "Longitude(deg)": 35.870926435502625,
        "Mean Anomaly(deg)": -105.24390781807257,
        "RAAN(deg)": 254.9936992629039,
        "Satellite Name": "Test1 1137",
        "Satellite Number": 1137,
        "Semi-Major Axis(m)": 6980739.136638005,
        "Time(s)": 150
    },
    {
        "Altitude(m)": 624059.4181189613,
        "Argument of Periapsis(deg)": 0.0016670313461274247,
        "Eccentricity": 0.0,
        "Inclination(deg)": 60.0,
        "Latitude(deg)": -57.08380044741546,
        "Longitude(deg)": 36.861467580160024,
        "Mean Anomaly(deg)": -104.62380167261072,
        "RAAN(deg)": 254.99327921376417,
        "Satellite Name": "Test1 1137",
        "Satellite Number": 1137,
        "Semi-Major Axis(m)": 6980739.136638005,
        "Time(s)": 160
    },
    {
        "Altitude(m)": 624147.0979011701,
        "Argument of Periapsis(deg)": 0.0017712208052603888,
        "Eccentricity": 0.0,
        "Inclination(deg)": 60.0,
        "Latitude(deg)": -57.32628155089947,
        "Longitude(deg)": 37.86578626198166,
        "Mean Anomaly(deg)": -104.00369552714886,
        "RAAN(deg)": 254.9928591646244,
        "Satellite Name": "Test1 1137",
        "Satellite Number": 1137,
        "Semi-Major Axis(m)": 6980739.136638005,
        "Time(s)": 170
    },
    {
        "Altitude(m)": 624231.2270728273,
        "Argument of Periapsis(deg)": 0.001875410264393353,
        "Eccentricity": 0.0,
        "Inclination(deg)": 60.0,
        "Latitude(deg)": -57.559950205018744,
        "Longitude(deg)": 38.88369716146262,
        "Mean Anomaly(deg)": -103.38358938168702,
        "RAAN(deg)": 254.99243911548464,
        "Satellite Name": "Test1 1137",
        "Satellite Number": 1137,
        "Semi-Major Axis(m)": 6980739.136638005,
        "Time(s)": 180
    },
    {
        "Altitude(m)": 624311.7725423133,
        "Argument of Periapsis(deg)": 0.0019795997235263173,
        "Eccentricity": 0.0,
        "Inclination(deg)": 60.0,
        "Latitude(deg)": -57.78461470961193,
        "Longitude(deg)": 39.91497984811414,
        "Mean Anomaly(deg)": -102.76348323622521,
        "RAAN(deg)": 254.99201906634494,
        "Satellite Name": "Test1 1137",
        "Satellite Number": 1137,
        "Semi-Major Axis(m)": 6980739.136638005,
        "Time(s)": 190
    }
]